start=new Date('2022-06-10T00:00:00.000Z').valueOf();
sats=[{"MEAN_ELEMENT_THEORY":"SGP4","FILE":"3489003","TLE_LINE1":"1 52559U 22051AC  22161.00001157 -.00047467  00000-0 -33521-3 0  9999","CLASSIFICATION_TYPE":"U","MEAN_MOTION_DDOT":"0.0000000000000","MEAN_MOTION_DOT":"-0.00047467","CENTER_NAME":"EARTH","OBJECT_NAME":"STARLINK-3953","MEAN_ANOMALY":"130.1727","APOAPSIS":"351.522","SEMIMAJOR_AXIS":"6727.816","TIME_SYSTEM":"UTC","EPOCH":"2022-06-10T00:00:00.999648","SITE":"AFWTR","ECCENTRICITY":"0.00027360","ELEMENT_SET_NO":"999","PERIOD":"91.532","OBJECT_TYPE":"PAYLOAD","REV_AT_EPOCH":"480","INCLINATION":"53.2177","TLE_LINE2":"2 52559  53.2177 159.1053 0002736  19.4953 130.1727 15.73227684  4804","NORAD_CAT_ID":"52559","REF_FRAME":"TEME","RA_OF_ASC_NODE":"159.1053","DECAY_DATE":null,"PERIAPSIS":"347.841","GP_ID":"205758314","COUNTRY_CODE":"US","MEAN_MOTION":"15.73227684","RCS_SIZE":"LARGE","LAUNCH_DATE":"2022-05-13","BSTAR":"-0.00033521000000","EPHEMERIS_TYPE":"0","OBJECT_ID":"2022-051AC","ARG_OF_PERICENTER":"19.4953"},{"MEAN_MOTION_DOT":"-0.00033975","MEAN_MOTION_DDOT":"0.0000000000000","CLASSIFICATION_TYPE":"U","TLE_LINE1":"1 52560U 22051AD  22161.00001157 -.00033975  00000-0 -23834-3 0  9996","MEAN_ELEMENT_THEORY":"SGP4","FILE":"3489003","ECCENTRICITY":"0.00027060","SITE":"AFWTR","EPOCH":"2022-06-10T00:00:00.999648","TIME_SYSTEM":"UTC","SEMIMAJOR_AXIS":"6727.833","MEAN_ANOMALY":"132.5113","APOAPSIS":"351.518","OBJECT_NAME":"STARLINK-3956","CENTER_NAME":"EARTH","RCS_SIZE":"LARGE","GP_ID":"205758322","COUNTRY_CODE":"US","MEAN_MOTION":"15.73221849","DECAY_DATE":null,"PERIAPSIS":"347.877","RA_OF_ASC_NODE":"159.0996","REF_FRAME":"TEME","NORAD_CAT_ID":"52560","TLE_LINE2":"2 52560  53.2163 159.0996 0002706  20.2070 132.5113 15.73221849  4805","REV_AT_EPOCH":"480","INCLINATION":"53.2163","OBJECT_TYPE":"PAYLOAD","PERIOD":"91.532","ELEMENT_SET_NO":"999","ARG_OF_PERICENTER":"20.2070","OBJECT_ID":"2022-051AD","BSTAR":"-0.00023834000000","EPHEMERIS_TYPE":"0","LAUNCH_DATE":"2022-05-13"},{"MEAN_MOTION_DOT":"-0.00830041","MEAN_MOTION_DDOT":"0.0000000000000","TLE_LINE1":"1 52561U 22051AE  22161.00001157 -.00830041  00000-0 -19592-1 0  9990","CLASSIFICATION_TYPE":"U","FILE":"3489010","MEAN_ELEMENT_THEORY":"SGP4","EPOCH":"2022-06-10T00:00:00.999648","ECCENTRICITY":"0.00015310","SITE":"AFWTR","TIME_SYSTEM":"UTC","SEMIMAJOR_AXIS":"6812.329","OBJECT_NAME":"STARLINK-3955","CENTER_NAME":"EARTH","MEAN_ANOMALY":"264.5643","APOAPSIS":"435.237","RCS_SIZE":"LARGE","COUNTRY_CODE":"US","GP_ID":"205758889","MEAN_MOTION":"15.44042665","RA_OF_ASC_NODE":"160.8905","PERIAPSIS":"433.151","DECAY_DATE":null,"REV_AT_EPOCH":"478","INCLINATION":"53.2175","REF_FRAME":"TEME","NORAD_CAT_ID":"52561","TLE_LINE2":"2 52561  53.2175 160.8905 0001531  44.6151 264.5643 15.44042665  4780","ELEMENT_SET_NO":"999","OBJECT_TYPE":"PAYLOAD","PERIOD":"93.262","ARG_OF_PERICENTER":"44.6151","BSTAR":"-0.01959200000000","EPHEMERIS_TYPE":"0","OBJECT_ID":"2022-051AE","LAUNCH_DATE":"2022-05-13"},{"RCS_SIZE":"LARGE","GP_ID":"205758827","COUNTRY_CODE":"US","MEAN_MOTION":"15.73214951","RA_OF_ASC_NODE":"159.0973","DECAY_DATE":null,"PERIAPSIS":"347.777","REV_AT_EPOCH":"480","INCLINATION":"53.2162","NORAD_CAT_ID":"52562","REF_FRAME":"TEME","TLE_LINE2":"2 52562  53.2162 159.0973 0002885  20.5109 133.3207 15.73214951  4804","ELEMENT_SET_NO":"999","OBJECT_TYPE":"PAYLOAD","PERIOD":"91.532","ARG_OF_PERICENTER":"20.5109","BSTAR":"0.00025279000000","EPHEMERIS_TYPE":"0","OBJECT_ID":"2022-051AF","LAUNCH_DATE":"2022-05-13","MEAN_MOTION_DOT":"0.00035032","MEAN_MOTION_DDOT":"0.0000000000000","TLE_LINE1":"1 52562U 22051AF  22161.00001157  .00035032  00000-0  25279-3 0  9997","CLASSIFICATION_TYPE":"U","FILE":"3489003","MEAN_ELEMENT_THEORY":"SGP4","EPOCH":"2022-06-10T00:00:00.999648","SITE":"AFWTR","ECCENTRICITY":"0.00028850","TIME_SYSTEM":"UTC","SEMIMAJOR_AXIS":"6727.853","OBJECT_NAME":"STARLINK-3957","CENTER_NAME":"EARTH","APOAPSIS":"351.659","MEAN_ANOMALY":"133.3207"},{"SEMIMAJOR_AXIS":"6812.569","APOAPSIS":"435.539","MEAN_ANOMALY":"154.6517","OBJECT_NAME":"STARLINK-3942","CENTER_NAME":"EARTH","ECCENTRICITY":"0.00016220","SITE":"AFWTR","EPOCH":"2022-06-09T22:00:00.999936","TIME_SYSTEM":"UTC","CLASSIFICATION_TYPE":"U","TLE_LINE1":"1 52563U 22051AG  22160.91667824 -.00833363  00000-0 -19732-1 0  9996","FILE":"3489040","MEAN_ELEMENT_THEORY":"SGP4","MEAN_MOTION_DOT":"-0.00833363","MEAN_MOTION_DDOT":"0.0000000000000","ARG_OF_PERICENTER":"47.4773","EPHEMERIS_TYPE":"0","BSTAR":"-0.01973200000000","OBJECT_ID":"2022-051AG","LAUNCH_DATE":"2022-05-13","REF_FRAME":"TEME","NORAD_CAT_ID":"52563","TLE_LINE2":"2 52563  53.2172 161.2738 0001622  47.4773 154.6517 15.43961285  1301","INCLINATION":"53.2172","REV_AT_EPOCH":"130","OBJECT_TYPE":"PAYLOAD","PERIOD":"93.267","ELEMENT_SET_NO":"999","RCS_SIZE":"LARGE","COUNTRY_CODE":"US","GP_ID":"205784622","MEAN_MOTION":"15.43961285","PERIAPSIS":"433.329","DECAY_DATE":null,"RA_OF_ASC_NODE":"161.2738"},{"ECCENTRICITY":"0.00016970","SITE":"AFWTR","EPOCH":"2022-06-10T00:00:00.999648","TIME_SYSTEM":"UTC","SEMIMAJOR_AXIS":"6811.716","MEAN_ANOMALY":"277.2484","APOAPSIS":"434.737","CENTER_NAME":"EARTH","OBJECT_NAME":"STARLINK-3959","MEAN_MOTION_DOT":"-0.00830079","MEAN_MOTION_DDOT":"0.0000000000000","CLASSIFICATION_TYPE":"U","TLE_LINE1":"1 52564U 22051AH  22161.00001157 -.00830079  00000-0 -19453-1 0  9990","MEAN_ELEMENT_THEORY":"SGP4","FILE":"3489003","BSTAR":"-0.01945300000000","EPHEMERIS_TYPE":"0","OBJECT_ID":"2022-051AH","ARG_OF_PERICENTER":"37.0885","LAUNCH_DATE":"2022-05-13","GP_ID":"205758316","COUNTRY_CODE":"US","MEAN_MOTION":"15.44251229","RCS_SIZE":"LARGE","DECAY_DATE":null,"PERIAPSIS":"432.425","RA_OF_ASC_NODE":"160.8986","TLE_LINE2":"2 52564  53.2175 160.8986 0001697  37.0885 277.2484 15.44251229  4787","NORAD_CAT_ID":"52564","REF_FRAME":"TEME","REV_AT_EPOCH":"478","INCLINATION":"53.2175","PERIOD":"93.249","OBJECT_TYPE":"PAYLOAD","ELEMENT_SET_NO":"999"},{"TLE_LINE1":"1 52565U 22051AJ  22161.00001157  .00052124  00000-0  37337-3 0  9999","CLASSIFICATION_TYPE":"U","MEAN_ELEMENT_THEORY":"SGP4","FILE":"3489003","MEAN_MOTION_DOT":"0.00052124","MEAN_MOTION_DDOT":"0.0000000000000","SEMIMAJOR_AXIS":"6727.879","CENTER_NAME":"EARTH","OBJECT_NAME":"STARLINK-3911","APOAPSIS":"351.586","MEAN_ANOMALY":"131.0964","EPOCH":"2022-06-10T00:00:00.999648","ECCENTRICITY":"0.00027370","SITE":"AFWTR","TIME_SYSTEM":"UTC","REV_AT_EPOCH":"480","INCLINATION":"53.2180","TLE_LINE2":"2 52565  53.2180 159.0977 0002737  22.1097 131.0964 15.73205576  4809","NORAD_CAT_ID":"52565","REF_FRAME":"TEME","ELEMENT_SET_NO":"999","PERIOD":"91.533","OBJECT_TYPE":"PAYLOAD","MEAN_MOTION":"15.73205576","GP_ID":"205758821","COUNTRY_CODE":"US","RCS_SIZE":"LARGE","RA_OF_ASC_NODE":"159.0977","DECAY_DATE":null,"PERIAPSIS":"347.903","OBJECT_ID":"2022-051AJ","BSTAR":"0.00037337000000","EPHEMERIS_TYPE":"0","ARG_OF_PERICENTER":"22.1097","LAUNCH_DATE":"2022-05-13"},{"NORAD_CAT_ID":"52566","REF_FRAME":"TEME","TLE_LINE2":"2 52566  53.2176 160.9731 0001529  42.2924 287.1644 15.45691397  4788","REV_AT_EPOCH":"478","INCLINATION":"53.2176","OBJECT_TYPE":"PAYLOAD","PERIOD":"93.162","ELEMENT_SET_NO":"999","RCS_SIZE":"LARGE","GP_ID":"205758822","COUNTRY_CODE":"US","MEAN_MOTION":"15.45691397","DECAY_DATE":null,"PERIAPSIS":"428.308","RA_OF_ASC_NODE":"160.9731","ARG_OF_PERICENTER":"42.2924","BSTAR":"-0.01852100000000","EPHEMERIS_TYPE":"0","OBJECT_ID":"2022-051AK","LAUNCH_DATE":"2022-05-13","CLASSIFICATION_TYPE":"U","TLE_LINE1":"1 52566U 22051AK  22161.00001157 -.00830355  00000-0 -18521-1 0  9994","MEAN_ELEMENT_THEORY":"SGP4","FILE":"3489003","MEAN_MOTION_DOT":"-0.00830355","MEAN_MOTION_DDOT":"0.0000000000000","SEMIMAJOR_AXIS":"6807.484","MEAN_ANOMALY":"287.1644","APOAPSIS":"430.390","OBJECT_NAME":"STARLINK-3938","CENTER_NAME":"EARTH","ECCENTRICITY":"0.00015290","SITE":"AFWTR","EPOCH":"2022-06-10T00:00:00.999648","TIME_SYSTEM":"UTC"},{"MEAN_ELEMENT_THEORY":"SGP4","FILE":"3489003","CLASSIFICATION_TYPE":"U","TLE_LINE1":"1 52567U 22051AL  22161.00001157  .00054289  00000-0  38889-3 0  9998","MEAN_MOTION_DDOT":"0.0000000000000","MEAN_MOTION_DOT":"0.00054289","APOAPSIS":"351.721","MEAN_ANOMALY":"139.5826","CENTER_NAME":"EARTH","OBJECT_NAME":"STARLINK-3929","SEMIMAJOR_AXIS":"6727.931","TIME_SYSTEM":"UTC","SITE":"AFWTR","ECCENTRICITY":"0.00028610","EPOCH":"2022-06-10T00:00:00.999648","PERIOD":"91.534","OBJECT_TYPE":"PAYLOAD","ELEMENT_SET_NO":"999","TLE_LINE2":"2 52567  53.2179 159.0959 0002861  14.7930 139.5826 15.73187405  4800","NORAD_CAT_ID":"52567","REF_FRAME":"TEME","INCLINATION":"53.2179","REV_AT_EPOCH":"480","DECAY_DATE":null,"PERIAPSIS":"347.871","RA_OF_ASC_NODE":"159.0959","COUNTRY_CODE":"US","GP_ID":"205758318","MEAN_MOTION":"15.73187405","RCS_SIZE":"LARGE","LAUNCH_DATE":"2022-05-13","BSTAR":"0.00038889000000","EPHEMERIS_TYPE":"0","OBJECT_ID":"2022-051AL","ARG_OF_PERICENTER":"14.7930"},{"EPOCH":"2022-06-10T00:00:00.999648","ECCENTRICITY":"0.00026240","SITE":"AFWTR","TIME_SYSTEM":"UTC","SEMIMAJOR_AXIS":"6727.861","OBJECT_NAME":"STARLINK-3930","CENTER_NAME":"EARTH","APOAPSIS":"351.491","MEAN_ANOMALY":"136.7039","MEAN_MOTION_DOT":"-0.00019775","MEAN_MOTION_DDOT":"0.0000000000000","TLE_LINE1":"1 52568U 22051AM  22161.00001157 -.00019775  00000-0 -13670-3 0  9993","CLASSIFICATION_TYPE":"U","FILE":"3489007","MEAN_ELEMENT_THEORY":"SGP4","ARG_OF_PERICENTER":"20.7376","BSTAR":"-0.00013670000000","EPHEMERIS_TYPE":"0","OBJECT_ID":"2022-051AM","LAUNCH_DATE":"2022-05-13","RCS_SIZE":"LARGE","GP_ID":"205758830","MEAN_MOTION":"15.73212104","COUNTRY_CODE":"US","RA_OF_ASC_NODE":"159.0899","DECAY_DATE":null,"PERIAPSIS":"347.960","INCLINATION":"53.2163","REV_AT_EPOCH":"480","NORAD_CAT_ID":"52568","REF_FRAME":"TEME","TLE_LINE2":"2 52568  53.2163 159.0899 0002624  20.7376 136.7039 15.73212104  4805","ELEMENT_SET_NO":"999","OBJECT_TYPE":"PAYLOAD","PERIOD":"91.532"}];
